NORAD_CAT_ID,OBJECT_NAME,OBJECT_TYPE,EPOCH,MEAN_MOTION,ECCENTRICITY,INCLINATION,RA_OF_ASC_NODE,ARG_OF_PERICENTER,MEAN_ANOMALY,BSTAR,MEAN_MOTION_DOT,MEAN_MOTION_DDOT,TLE_LINE0,TLE_LINE1,TLE_LINE2,SEMIMAJOR_AXIS,PERIOD,APOGEE,PERIGEE,DECAYED
56779.0,STARLINK-6231,PAYLOAD,2023-12-27 13:39:14,14.98329418,0.0002972,69.9993,189.4135,270.8933,89.1885,9.5439e-06,2.1e-07,0.0,0 STARLINK-6231,1 56779U 23078N   23361.56891583  .00000021  00000-0  95439-5 0  9992,2 56779  69.9993 189.4135 0002972 270.8933  89.1885 14.98329418 32861,6950.195,96.107,574.125,569.994,0.0
56779.0,STARLINK-6231,PAYLOAD,2023-12-27 20:03:46,14.98329993,0.0002955,69.9993,188.7402,269.712,90.3701,1.4761e-05,8.3e-07,0.0,0 STARLINK-6231,1 56779U 23078N   23361.83595517  .00000083  00000-0  14761-4 0  9996,2 56779  69.9993 188.7402 0002955 269.7120  90.3701 14.98329993 33170,6950.193,96.107,574.112,570.004,0.0
56779.0,STARLINK-6231,PAYLOAD,2023-12-27 21:39:54,14.98330039,0.0002951,69.9993,188.5719,269.5741,90.5079,1.4881e-05,8.5e-07,0.0,0 STARLINK-6231,1 56779U 23078N   23361.90271509  .00000085  00000-0  14881-4 0  9991,2 56779  69.9993 188.5719 0002951 269.5741  90.5079 14.98330039 32916,6950.193,96.107,574.109,570.007,0.0
56779.0,STARLINK-6231,PAYLOAD,2023-12-28 13:41:15,14.98329168,0.0002901,69.9995,186.8887,265.9709,94.1119,-1.724e-05,-2.99e-06,0.0,0 STARLINK-6231,1 56779U 23078N   23362.57031615 -.00000299  00000-0 -17240-4 0  9998,2 56779  69.9995 186.8887 0002901 265.9709  94.1119 14.98329168 33012,6950.195,96.107,574.077,570.044,0.0
56779.0,STARLINK-6231,PAYLOAD,2023-12-28 20:05:47,14.98328753,0.0002921,69.9995,186.2155,265.4823,94.6002,-2.1781e-05,-3.53e-06,0.0,0 STARLINK-6231,1 56779U 23078N   23362.83735653 -.00000353  00000-0 -21781-4 0  9996,2 56779  69.9995 186.2155 0002921 265.4823  94.6002 14.98328753 33057,6950.197,96.107,574.092,570.032,0.0
56779.0,STARLINK-6231,PAYLOAD,2023-12-29 13:43:16,14.98330807,0.00029,69.9995,184.3638,263.7235,96.3594,9.8464e-06,2.4e-07,0.0,0 STARLINK-6231,1 56779U 23078N   23363.57171388  .00000024  00000-0  98464-5 0  9993,2 56779  69.9995 184.3638 0002900 263.7235  96.3594 14.98330807 33167,6950.19,96.107,574.071,570.04,0.0
56779.0,STARLINK-6231,PAYLOAD,2023-12-29 21:43:56,14.98330032,0.0002899,69.9996,183.5224,263.7611,96.3218,2.107e-06,-6.8e-07,0.0,0 STARLINK-6231,1 56779U 23078N   23363.90551438 -.00000068  00000-0  21070-5 0  9996,2 56779  69.9996 183.5224 0002899 263.7611  96.3218 14.98330032 33214,6950.193,96.107,574.073,570.043,0.0
56779.0,STARLINK-6231,PAYLOAD,2023-12-30 10:33:28,14.9804763,0.0002151,69.9997,182.1773,263.8947,96.1967,-0.002805,-0.0003316,0.0,0 STARLINK-6231,1 56779U 23078N   23364.43991216 -.00033160  00000-0 -28050-2 0  9999,2 56779  69.9997 182.1773 0002151 263.8947  96.1967 14.98047630 33569,6951.066,96.125,574.426,571.436,0.0
56779.0,STARLINK-6231,PAYLOAD,2023-12-30 20:09:49,14.98328876,0.0002977,69.9995,181.1661,265.5744,94.5075,9.7872e-06,2.4e-07,0.0,0 STARLINK-6231,1 56779U 23078N   23364.84015463  .00000024  00000-0  97872-5 0  9997,2 56779  69.9995 181.1661 0002977 265.5744  94.5075 14.98328876 33355,6950.196,96.107,574.13,569.992,0.0
56779.0,STARLINK-6231,PAYLOAD,2023-12-31 21:47:58,14.98332654,0.0003162,69.9988,178.4723,272.9361,87.1436,6.7437e-06,-1.3e-07,0.0,0 STARLINK-6231,1 56779U 23078N   23365.90831200 -.00000013  00000-0  67437-5 0  9993,2 56779  69.9988 178.4723 0003162 272.9361  87.1436 14.98332654 33515,6950.185,96.107,574.247,569.852,0.0
56779.0,STARLINK-6231,PAYLOAD,2024-01-01 13:49:18,14.98330431,0.0003146,69.9987,176.789,272.8284,87.2514,7.3717e-06,-5e-08,0.0,0 STARLINK-6231,1 56779U 23078N   24001.57591275 -.00000005  00000-0  73717-5 0  9998,2 56779  69.9987 176.7890 0003146 272.8284  87.2514 14.98330431 33615,6950.192,96.107,574.243,569.87,0.0
56779.0,STARLINK-6231,PAYLOAD,2024-01-01 21:49:59,14.98331951,0.000315,69.9988,175.9474,273.2423,86.8376,2.3786e-05,1.91e-06,0.0,0 STARLINK-6231,1 56779U 23078N   24001.90971110  .00000191  00000-0  23786-4 0  9990,2 56779  69.9988 175.9474 0003150 273.2423  86.8376 14.98331951 33934,6950.187,96.107,574.241,569.863,0.0
56779.0,STARLINK-6231,PAYLOAD,2024-01-02 13:51:19,14.9833026,0.0003099,69.9992,174.2639,274.2235,85.857,-1.0173e-05,-2.14e-06,0.0,0 STARLINK-6231,1 56779U 23078N   24002.57731267 -.00000214  00000-0 -10173-4 0  9995,2 56779  69.9992 174.2639 0003099 274.2235  85.8570 14.98330260 33766,6950.192,96.107,574.211,569.903,0.0
56779.0,STARLINK-6231,PAYLOAD,2024-01-02 20:15:52,14.98330147,0.0003005,69.9994,173.5911,270.0445,90.0369,1.5416e-06,-7.5e-07,0.0,0 STARLINK-6231,1 56779U 23078N   24002.84435202 -.00000075  00000-0  15416-5 0  9995,2 56779  69.9994 173.5911 0003005 270.0445  90.0369 14.98330147 33800,6950.192,96.107,574.146,569.969,0.0
56779.0,STARLINK-6231,PAYLOAD,2024-01-03 12:17:12,14.98329102,0.000298,69.9994,171.9081,269.4593,90.6224,-1.3384e-05,-2.53e-06,0.0,0 STARLINK-6231,1 56779U 23078N   24003.51195275 -.00000253  00000-0 -13384-4 0  9993,2 56779  69.9994 171.9081 0002980 269.4593  90.6224 14.98329102 34173,6950.196,96.107,574.132,569.99,0.0
56779.0,STARLINK-6231,PAYLOAD,2024-01-03 13:53:20,14.9832858,0.0002993,69.9994,171.7399,268.3858,91.6958,-1.9036e-05,-3.2e-06,0.0,0 STARLINK-6231,1 56779U 23078N   24003.57871313 -.00000320  00000-0 -19036-4 0  9998,2 56779  69.9994 171.7399 0002993 268.3858  91.6958 14.98328580 33914,6950.197,96.107,574.142,569.982,0.0
56779.0,STARLINK-6231,PAYLOAD,2024-01-03 20:17:53,14.98328401,0.0003009,69.9994,171.0665,269.6532,90.4282,-2.0661e-05,-3.4e-06,0.0,0 STARLINK-6231,1 56779U 23078N   24003.84575350 -.00000340  00000-0 -20661-4 0  9998,2 56779  69.9994 171.0665 0003009 269.6532  90.4282 14.98328401 33958,6950.198,96.107,574.154,569.972,0.0
56779.0,STARLINK-6231,PAYLOAD,2024-01-04 12:19:13,14.98330547,0.0003083,69.9993,169.3832,270.3702,89.7104,7.8245e-07,-8.4e-07,0.0,0 STARLINK-6231,1 56779U 23078N   24004.51335133 -.00000084  00000-0  78245-6 0  9993,2 56779  69.9993 169.3832 0003083 270.3702  89.7104 14.98330547 34323,6950.191,96.107,574.199,569.913,0.0
56779.0,STARLINK-6231,PAYLOAD,2024-01-04 13:55:21,14.98330268,0.0003088,69.9993,169.2151,269.8077,90.2728,-3.541e-06,-1.35e-06,0.0,0 STARLINK-6231,1 56779U 23078N   24004.58011155 -.00000135  00000-0 -35410-5 0  9999,2 56779  69.9993 169.2151 0003088 269.8077  90.2728 14.98330268 34069,6950.192,96.107,574.203,569.911,0.0
56779.0,STARLINK-6231,PAYLOAD,2024-01-04 20:19:53,14.98331153,0.0003101,69.9993,168.5417,270.6552,89.4252,7.1513e-06,-8e-08,0.0,0 STARLINK-6231,1 56779U 23078N   24004.84715059 -.00000008  00000-0  71513-5 0  9994,2 56779  69.9993 168.5417 0003101 270.6552  89.4252 14.98331153 34101,6950.189,96.107,574.21,569.899,0.0
56779.0,STARLINK-6231,PAYLOAD,2024-01-05 12:21:14,14.98326517,0.0003064,69.9995,166.8589,270.1856,89.8952,-1.1301e-05,-2.28e-06,0.0,0 STARLINK-6231,1 56779U 23078N   24005.51475438 -.00000228  00000-0 -11301-4 0  9996,2 56779  69.9995 166.8589 0003064 270.1856  89.8952 14.98326517 34473,6950.204,96.107,574.198,569.939,0.0
56779.0,STARLINK-6231,PAYLOAD,2024-01-05 13:57:22,14.98326463,0.0003073,69.9995,166.6905,269.8606,90.2201,-1.267e-05,-2.44e-06,0.0,0 STARLINK-6231,1 56779U 23078N   24005.58151452 -.00000244  00000-0 -12670-4 0  9998,2 56779  69.9995 166.6905 0003073 269.8606  90.2201 14.98326463 34216,6950.204,96.107,574.205,569.933,0.0
56779.0,STARLINK-6231,PAYLOAD,2024-01-05 20:21:55,14.98327798,0.0003067,69.9996,166.0176,271.018,89.0628,3.41e-06,-5.2e-07,0.0,0 STARLINK-6231,1 56779U 23078N   24005.84855371 -.00000052  00000-0  34100-5 0  9997,2 56779  69.9996 166.0176 0003067 271.0180  89.0628 14.98327798 34251,6950.2,96.107,574.196,569.933,0.0
56779.0,STARLINK-6231,PAYLOAD,2024-01-06 12:23:15,14.98330478,0.000308,69.9997,164.3333,270.7351,89.3455,2.6757e-06,-6.1e-07,0.0,0 STARLINK-6231,1 56779U 23078N   24006.51615169 -.00000061  00000-0  26757-5 0  9990,2 56779  69.9997 164.3333 0003080 270.7351  89.3455 14.98330478 34620,6950.191,96.107,574.197,569.916,0.0
56779.0,STARLINK-6231,PAYLOAD,2024-01-06 20:23:55,14.98333235,0.0003054,69.9997,163.4917,270.1218,89.9592,3.5236e-05,3.27e-06,0.0,0 STARLINK-6231,1 56779U 23078N   24006.84994865  .00000327  00000-0  35236-4 0  9994,2 56779  69.9997 163.4917 0003054 270.1218  89.9592 14.98333235 34403,6950.183,96.107,574.17,569.925,0.0
56779.0,STARLINK-6231,PAYLOAD,2024-01-07 12:25:16,14.98327791,0.0002667,70.0,161.8083,263.5696,96.5159,3.1425e-05,2.82e-06,0.0,0 STARLINK-6231,1 56779U 23078N   24007.51755174  .00000282  00000-0  31425-4 0  9993,2 56779  70.0000 161.8083 0002667 263.5696  96.5159 14.98327791 34775,6950.2,96.107,573.918,570.211,0.0
56779.0,STARLINK-6231,PAYLOAD,2024-01-07 14:01:24,14.98363523,0.0002613,70.0,161.6402,271.3341,88.7518,-0.00057037,-6.898e-05,0.0,0 STARLINK-6231,1 56779U 23078N   24007.58430826 -.00006898  00000-0 -57037-3 0  9991,2 56779  70.0000 161.6402 0002613 271.3341  88.7518 14.98363523 34510,6950.089,96.105,573.77,570.138,0.0
56779.0,STARLINK-6231,PAYLOAD,2024-01-07 18:49:48,14.98362421,0.000281,70.0001,161.1353,276.2427,83.8411,-0.00055484,-6.712e-05,0.0,0 STARLINK-6231,1 56779U 23078N   24007.78458511 -.00006712  00000-0 -55484-3 0  9993,2 56779  70.0001 161.1353 0002810 276.2427  83.8411 14.98362421 34816,6950.093,96.105,573.911,570.005,0.0
56779.0,STARLINK-6231,PAYLOAD,2024-01-07 20:25:55,14.98368205,0.0002898,70.0,160.9671,275.898,84.1849,-0.00063792,-7.704e-05,0.0,0 STARLINK-6231,1 56779U 23078N   24007.85134197 -.00007704  00000-0 -63792-3 0  9995,2 56779  70.0000 160.9671 0002898 275.8980  84.1849 14.98368205 34556,6950.075,96.105,573.954,569.926,0.0
56779.0,STARLINK-6231,PAYLOAD,2024-01-08 10:51:09,14.98332748,0.0002944,70.0002,159.4525,267.7583,92.3239,1.8832e-05,1.32e-06,0.0,0 STARLINK-6231,1 56779U 23078N   24008.45218817  .00000132  00000-0  18832-4 0  9996,2 56779  70.0002 159.4525 0002944 267.7583  92.3239 14.98332748 34917,6950.184,96.107,574.096,570.003,0.0
